#dP2024  6  3  0  0  0.00000000     289 d+D   IGS20 FIT AIUB
## 2317  86400.00000000   300.00000000 60464 0.0000000000000
+  122   G01G02G03G04G05G06G07G08G09G10G11G12G13G14G15G16G17
+        G18G19G20G21G22G23G24G25G26G27G28G29G30G31G32R01R02
+        R03R04R05R07R08R09R11R12R13R14R15R16R17R18R19R20R21
+        R22R24R25R26E02E03E04E05E07E08E09E10E11E12E13E14E15
+        E18E19E21E24E25E26E27E29E30E31E33E34E36C06C07C08C09
+        C10C11C12C13C14C16C19C20C21C22C23C24C25C26C27C28C29
+        C30C32C33C34C35C36C37C38C39C40C41C42C43C44C45C46C48
+        J02J03J04  0  0  0  0  0  0  0  0  0  0  0  0  0  0
++         5  5  5  5  5  5  5  5  5  5  5  5  5  5  5  5  5
++         5  5  5  5  5  5  5  5  5  5  5  5  5  5  5  5  5
++         5  5  5  5  5  5  5  5  5  5  5  5  5  5  5  5  5
++         5  5  5  5  5  5  5  5  5  5  5  5  5  5  5  5  5
++         5  5  5  5  5  5  5  0  5  5  5  5  5  5  5  5  5
++        10  5  5  5  5  5  5  5  5  5  5  5  5  5  5  5  5
++         5  5  5  5  5  5  5  5  5  5  5  5  5  5  5  5  5
++         5  5  5  0  0  0  0  0  0  0  0  0  0  0  0  0  0
%c M  cc GPS ccc cccc cccc cccc cccc ccccc ccccc ccccc ccccc
%c cc cc ccc ccc cccc cccc cccc cccc ccccc ccccc ccccc ccccc
%f  1.2500000  1.025000000  0.00000000000  0.000000000000000
%f  0.0000000  0.000000000  0.00000000000  0.000000000000000
%i    0    0    0    0      0      0      0      0         0
%i    0    0    0    0      0      0      0      0         0
/* Center for Orbit Determination in Europe (CODE)                              
/* MGEX orbits and clocks for year-day 2024-1550                                
/* Middle day of a 3-day long-arc multi-GNSS solution                           
/* Systems considered: GPS/GLONASS/Galileo/BeiDou/QZSS                          
/* Product reference - DOI 10.48350/197028                                      
/* PCV:IGS20      OL/AL:FES2014b NONE     YN ORB:CoN CLK:CoN                    
*  2024  6  3 11 45  0.00000000
PG01  18957.210785   9250.688906 -16711.634944    264.814567
PG02  14352.643526 -18679.628198  12449.553387   -424.558184
PG03  18610.969598 -12495.452321 -14306.369984    395.648840
PG04   8982.170007 -12774.646765 -21450.286411    375.211332
PG05 -26104.332813   5147.612410   -414.741595   -175.005911
PG06  -8254.510686 -15048.204072 -20176.141329    238.970049
PG07   4143.146215 -25117.145158   7178.076998   -104.384846
PG08  16694.973800  -2925.210168  20435.723099    211.563840
PG09  -2933.318091 -20919.619100 -16148.655929    220.584123
PG10  13495.721824  11409.830879  20137.243616    -35.154906
PG11 -15535.505002  -1505.175717 -21461.188183   -677.296822
PG12 -20781.035521  10778.929111 -12779.163741   -510.932273
PG13 -18361.841044  -7004.345468  17769.280056    655.304030
PG14  -9306.006604 -13843.590380  20745.797902    416.470899
PG15 -16239.494325   5115.092196  19930.817555    166.072744
PG16  26649.570040    323.381749  -3174.594574   -274.440562
PG17 -12228.852222 -23025.355773   5018.444428    699.562937
PG18  -4605.258720  24952.336209   7503.403646   -619.941401
PG19 -17088.174848 -20056.543007  -4929.578951    491.170212
PG20 -24276.660712    531.189544 -10528.296975    374.248374
PG21  15733.914833 -13452.377683  16462.669285    117.758153
PG22 -16642.873788 -11224.309678  17662.917634    -22.395027
PG23    171.543056  14960.582249  21955.222161    241.307169
PG24 -14680.479088  17453.643081  12843.216334   -475.022513
PG25 -11436.018586  15470.502898 -18539.346596    496.794610
PG26  21107.437501   6484.811039 -15167.975036    142.973008
PG27  20404.646707   8794.766572  14570.147467    -26.802390
PG28   7765.475120  17298.486575 -18609.640500   -272.265605
PG29  -1314.410416  19579.762636 -17893.348341   -595.828779
PG30  -4195.122852 -21090.154333  15563.360920   -380.236781
PG31  14105.660711   6349.344806 -21798.693053   -227.582362
PG32  15378.865339  21634.443031   2797.886532   -617.208792
PR01  19402.419298   1392.560332 -16486.949155     87.323776
PR02   5590.643862  -9177.338762 -23086.546206    -23.145405
PR03 -11583.831144 -15461.867815 -16575.595093    101.379702
PR04 -21771.536326 -13224.408503  -1209.947027    239.419151
PR05 -20379.495082  -3926.052093  14830.930250    132.521363
PR07  12256.182166  15607.954355  16097.355152     83.773306
PR08  21928.574313  13020.002563   1105.438411     -4.514902
PR09 -16423.617445  16557.506589 -10411.456413    190.159735
PR11  13329.495115   3788.063576 -21397.922344     22.634392
PR12  22556.665886  -9468.998434  -7215.504823     40.891189
PR13  18290.934546 -15813.865293   8117.178466    -47.994844
PR14   1472.226064 -13268.332321  21746.819246     26.557244
PR15 -14651.756821  -2852.764917  20710.108448     79.193676
PR16 -22491.423907   9455.957317   7522.197898     26.154675
PR17  -2571.207764 -24811.725979  -5434.031843     92.546616
PR18  -8518.323455 -14562.169784 -19104.282984    145.219022
PR19 -10439.093324    860.438006 -23264.371497   -278.942020
PR20  -6598.436781  21062.071265 -12820.948896   -113.863521
PR21   2234.047938  24855.069313   5208.304101   -106.154718
PR22   8824.916303  13747.929993  19616.405484    106.691737
PR24   5719.801085 -21645.056440  12250.976471    -58.370259
PR25   1798.695354  24790.022204   5690.219427    -24.323803
PR26  21610.870538  13323.229916   2349.592568     -7.061204
PE02 -11308.391880  16452.203617 -21854.749735    132.543353
PE03  -1189.986905  21732.693774  20054.557630   -117.967365
PE04 -15274.108856 -25033.590291  -4047.977613   -412.408043
PE05 -16542.356362   5745.837734  23873.726907   4753.622580
PE07  22303.958750  14022.693306 -13466.618298   -123.718627
PE08  14699.518507  25206.422579   4922.209622   -281.010279
PE09 -22255.199858 -14164.150617  13453.293927   -466.253459
PE10 -10220.192058 -14667.323287 -23604.398551   -629.825042
PE11 -15849.522086  -3653.794977 -24747.965596   2725.142500
PE12  -3764.891840 -22354.217480 -19033.420244  -1066.184570
PE13  15519.530813   4281.159903  24835.681143    -21.992859
PE14  15663.243876  -4959.269885  18380.298313     58.865159
PE15   3294.253587  22726.175637  18681.697072   -106.679211
PE18 -23378.865528  -2127.601610 -21119.410955    183.933558
PE19   2951.469628 -20490.431342 -21145.617535     52.265199
PE21  26931.059493  -8963.510216   8391.569223   -597.982997
PE24 -27239.435447  -4380.713711  10690.984269   -798.284898
PE25 -27131.431207   8716.524867  -8002.823307      5.288489
PE26  18481.084859 -16811.537636  15871.038855    473.086265
PE27  27374.849509   4108.105824 -10487.435857   -365.757274
PE29  15862.727769  -7106.052419 -23932.929435 999999.999999
PE30  11526.874686  14722.366324 -22957.723251   -366.674637
PE31 -11672.735477 -14601.959649  22957.519567    -25.325442
PE33  10979.073355 -27465.661494  -1177.189100     12.405486
PE34 -10630.708925  27572.023107   1657.284649   -114.895813
PE36 -18471.804531  16339.908615 -16381.481436   -236.066890
PC06 -10650.209980  40804.699554   3609.391326    473.630864
PC07  -4388.145648  28660.111456 -30482.907042   -671.347964
PC08 -18727.150608  24232.056873  28870.052842   -176.447872
PC09  -6852.002568  41657.448479  -4499.649898    163.238955
PC10   4603.324921  31060.311943 -27546.374365    -12.075308
PC11  -7624.412938 -26318.849328  -5259.684776    594.971576
PC12   4627.332760 -24348.820425  12860.469979   -253.107053
PC13 -11132.377992  25380.958316  31835.408888    437.421313
PC14 -13761.136001 -17097.016551 -17264.972593    913.015320
PC16 -12464.584451  39966.781317   6719.335520   -564.159397
PC19  21641.381545  14550.376780   9907.290565   -913.420947
PC20   5376.295397  17097.768751  21386.658363   -534.471713
PC21  15751.056752  -9479.496587 -20971.073769   -971.523838
PC22  26476.228088   3477.477451  -8043.941716     16.553494
PC23 -22569.808345   4482.100639  15797.359081   -783.799425
PC24   7020.984765 -21617.960689  16195.782585    910.618583
PC25 -11329.888402 -11740.977125  22630.863440    416.231265
PC26  20428.798295 -19031.297059    440.692244   -300.514150
PC27 -10144.115964  17918.436698 -18861.763077    321.837633
PC28 -16185.540182    272.740544 -22730.175097    247.094176
PC29  13783.723965  20770.311009  12534.103712    290.002008
PC30   2250.194192  27289.440939  -5445.937620    -93.358556
PC32 -15821.990481   9546.612261  20932.320700   -638.223577
PC33 -21723.133017 -14445.151025  -9946.535653   -962.092033
PC34  -3389.093421 -27419.454297   3845.799126    447.657412
PC35  16311.580777   -456.122557  22622.418111    347.191089
PC36  11098.792075  11951.907006 -22618.076414    100.022584
PC37 -20889.248118  18483.355665   -299.033230   -949.707506
PC38 -23700.326685  26080.379648  23105.637535    159.016010
PC39 -12309.669161  38973.601675  10928.371172     -8.594199
PC40  -7721.416293  23501.969906 -34111.008411    -73.336295
PC41 -26683.049968  -3945.868691   7258.935355   -964.576560
PC42  -3574.265025 -16881.268795 -21898.773009   -444.745846
PC43 -13449.377644 -21444.248049 -11742.555741     73.978738
PC44   9632.663679 -18162.708852  18838.215524    492.494088
PC45  22473.686081  -4305.653272 -15984.610426    -91.084128
PC46  -6449.223818  21358.899340 -16740.184438   -153.695095
PC48  13713.879369  17288.451992  17084.404959    725.334033
PJ02 -33039.979553  15863.376547 -16196.557782     -0.259236
PJ03 -21983.362152  32290.277760 -11343.177885      0.437282
PJ04 -27128.770684  26104.793912  24917.266768     50.327243
EOF
